[{"OBJECT_NAME":"ONEWEB-0027","OBJECT_ID":"2020-020J","EPOCH":"2026-02-03T06:41:05.333280","MEAN_MOTION":13.17650578,"ECCENTRICITY":0.00020276,"INCLINATION":87.91,"RA_OF_ASC_NODE":32.4451,"ARG_OF_PERICENTER":99.4611,"MEAN_ANOMALY":260.675,"EPHEMERIS_TYPE":0,"CLASSIFICATION_TYPE":"U","NORAD_CAT_ID":45432,"ELEMENT_SET_NO":999,"REV_AT_EPOCH":28872,"BSTAR":9.7256773e-5,"MEAN_MOTION_DOT":5.1e-7,"MEAN_MOTION_DDOT":0},{"OBJECT_NAME":"ONEWEB-0064","OBJECT_ID":"2020-020K","EPOCH":"2026-02-02T23:30:42.811488","MEAN_MOTION":13.11415682,"ECCENTRICITY":0.00018465,"INCLINATION":87.8814,"RA_OF_ASC_NODE":47.7765,"ARG_OF_PERICENTER":96.5807,"MEAN_ANOMALY":263.5532,"EPHEMERIS_TYPE":0,"CLASSIFICATION_TYPE":"U","NORAD_CAT_ID":45433,"ELEMENT_SET_NO":999,"REV_AT_EPOCH":28509,"BSTAR":-0.0012303935,"MEAN_MOTION_DOT":-4.23e-6,"MEAN_MOTION_DDOT":0},{"OBJECT_NAME":"ONEWEB-0018","OBJECT_ID":"2020-020L","EPOCH":"2026-02-03T07:36:35.021664","MEAN_MOTION":13.11419502,"ECCENTRICITY":0.00016837,"INCLINATION":87.8824,"RA_OF_ASC_NODE":47.7033,"ARG_OF_PERICENTER":89.6061,"MEAN_ANOMALY":270.526,"EPHEMERIS_TYPE":0,"CLASSIFICATION_TYPE":"U","NORAD_CAT_ID":45434,"ELEMENT_SET_NO":999,"REV_AT_EPOCH":28508,"BSTAR":0.0008444486,"MEAN_MOTION_DOT":3.12e-6,"MEAN_MOTION_DDOT":0},{"OBJECT_NAME":"ONEWEB-0083","OBJECT_ID":"2020-020M","EPOCH":"2026-02-03T07:23:10.311936","MEAN_MOTION":13.11419018,"ECCENTRICITY":0.00017939,"INCLINATION":87.8824,"RA_OF_ASC_NODE":47.693,"ARG_OF_PERICENTER":92.6185,"MEAN_ANOMALY":267.5148,"EPHEMERIS_TYPE":0,"CLASSIFICATION_TYPE":"U","NORAD_CAT_ID":45435,"ELEMENT_SET_NO":999,"REV_AT_EPOCH":28512,"BSTAR":-0.00025936593,"MEAN_MOTION_DOT":-7.9e-7,"MEAN_MOTION_DDOT":0},{"OBJECT_NAME":"ONEWEB-0095","OBJECT_ID":"2020-020N","EPOCH":"2026-02-03T07:09:55.508832","MEAN_MOTION":13.11417575,"ECCENTRICITY":0.00026059,"INCLINATION":87.8817,"RA_OF_ASC_NODE":47.7044,"ARG_OF_PERICENTER":95.0624,"MEAN_ANOMALY":265.0801,"EPHEMERIS_TYPE":0,"CLASSIFICATION_TYPE":"U","NORAD_CAT_ID":45436,"ELEMENT_SET_NO":999,"REV_AT_EPOCH":28512,"BSTAR":-0.0012085735,"MEAN_MOTION_DOT":-4.16e-6,"MEAN_MOTION_DDOT":0},{"OBJECT_NAME":"ONEWEB-0092","OBJECT_ID":"2020-020P","EPOCH":"2026-02-03T02:49:42.551904","MEAN_MOTION":13.11413444,"ECCENTRICITY":0.00021829,"INCLINATION":87.8818,"RA_OF_ASC_NODE":47.7406,"ARG_OF_PERICENTER":87.8136,"MEAN_ANOMALY":272.3242,"EPHEMERIS_TYPE":0,"CLASSIFICATION_TYPE":"U","NORAD_CAT_ID":45437,"ELEMENT_SET_NO":999,"REV_AT_EPOCH":28521,"BSTAR":0.00015882351,"MEAN_MOTION_DOT":6.9e-7,"MEAN_MOTION_DDOT":0},{"OBJECT_NAME":"ONEWEB-0085","OBJECT_ID":"2020-020Q","EPOCH":"2026-02-03T01:52:20.184960","MEAN_MOTION":13.11418168,"ECCENTRICITY":0.00018712,"INCLINATION":87.8817,"RA_OF_ASC_NODE":47.7542,"ARG_OF_PERICENTER":90.0613,"MEAN_ANOMALY":270.0729,"EPHEMERIS_TYPE":0,"CLASSIFICATION_TYPE":"U","NORAD_CAT_ID":45438,"ELEMENT_SET_NO":999,"REV_AT_EPOCH":28509,"BSTAR":-0.00034425741,"MEAN_MOTION_DOT":-1.09e-6,"MEAN_MOTION_DDOT":0},{"OBJECT_NAME":"ONEWEB-0096","OBJECT_ID":"2020-020R","EPOCH":"2026-02-03T01:54:46.531872","MEAN_MOTION":13.11418347,"ECCENTRICITY":0.00018484,"INCLINATION":87.8828,"RA_OF_ASC_NODE":47.7391,"ARG_OF_PERICENTER":88.4419,"MEAN_ANOMALY":271.6921,"EPHEMERIS_TYPE":0,"CLASSIFICATION_TYPE":"U","NORAD_CAT_ID":45439,"ELEMENT_SET_NO":999,"REV_AT_EPOCH":28508,"BSTAR":0.0001150723,"MEAN_MOTION_DOT":5.3e-7,"MEAN_MOTION_DDOT":0},{"OBJECT_NAME":"ONEWEB-0037","OBJECT_ID":"2020-020S","EPOCH":"2026-02-03T01:26:41.797536","MEAN_MOTION":13.11417505,"ECCENTRICITY":0.00019261,"INCLINATION":87.8832,"RA_OF_ASC_NODE":47.717,"ARG_OF_PERICENTER":90.9041,"MEAN_ANOMALY":269.2308,"EPHEMERIS_TYPE":0,"CLASSIFICATION_TYPE":"U","NORAD_CAT_ID":45440,"ELEMENT_SET_NO":999,"REV_AT_EPOCH":28511,"BSTAR":-0.0015103897,"MEAN_MOTION_DOT":-5.23e-6,"MEAN_MOTION_DDOT":0},{"OBJECT_NAME":"ONEWEB-0042","OBJECT_ID":"2020-020T","EPOCH":"2026-02-03T01:39:55.390176","MEAN_MOTION":13.11417715,"ECCENTRICITY":0.00019086,"INCLINATION":87.8823,"RA_OF_ASC_NODE":47.7401,"ARG_OF_PERICENTER":87.2177,"MEAN_ANOMALY":272.9169,"EPHEMERIS_TYPE":0,"CLASSIFICATION_TYPE":"U","NORAD_CAT_ID":45441,"ELEMENT_SET_NO":999,"REV_AT_EPOCH":28508,"BSTAR":-0.0012141425,"MEAN_MOTION_DOT":-4.18e-6,"MEAN_MOTION_DDOT":0},{"OBJECT_NAME":"ONEWEB-0098","OBJECT_ID":"2020-020U","EPOCH":"2026-02-03T07:03:36.724320","MEAN_MOTION":13.11418987,"ECCENTRICITY":0.00017645,"INCLINATION":87.8824,"RA_OF_ASC_NODE":47.7066,"ARG_OF_PERICENTER":93.0308,"MEAN_ANOMALY":267.1022,"EPHEMERIS_TYPE":0,"CLASSIFICATION_TYPE":"U","NORAD_CAT_ID":45442,"ELEMENT_SET_NO":999,"REV_AT_EPOCH":28509,"BSTAR":-0.0014400693,"MEAN_MOTION_DOT":-4.98e-6,"MEAN_MOTION_DDOT":0},{"OBJECT_NAME":"ONEWEB-0055","OBJECT_ID":"2020-020V","EPOCH":"2026-02-03T01:09:36.018720","MEAN_MOTION":13.11414306,"ECCENTRICITY":0.0001818,"INCLINATION":87.8819,"RA_OF_ASC_NODE":47.7555,"ARG_OF_PERICENTER":92.6294,"MEAN_ANOMALY":267.5042,"EPHEMERIS_TYPE":0,"CLASSIFICATION_TYPE":"U","NORAD_CAT_ID":45443,"ELEMENT_SET_NO":999,"REV_AT_EPOCH":28503,"BSTAR":-0.00079633815,"MEAN_MOTION_DOT":-2.7e-6,"MEAN_MOTION_DDOT":0},{"OBJECT_NAME":"ONEWEB-0093","OBJECT_ID":"2020-020W","EPOCH":"2026-02-03T07:53:53.375136","MEAN_MOTION":13.1141633,"ECCENTRICITY":0.00018706,"INCLINATION":87.8822,"RA_OF_ASC_NODE":47.6884,"ARG_OF_PERICENTER":79.4946,"MEAN_ANOMALY":280.6393,"EPHEMERIS_TYPE":0,"CLASSIFICATION_TYPE":"U","NORAD_CAT_ID":45444,"ELEMENT_SET_NO":999,"REV_AT_EPOCH":28513,"BSTAR":0.0015127324,"MEAN_MOTION_DOT":5.49e-6,"MEAN_MOTION_DDOT":0},{"OBJECT_NAME":"ONEWEB-0029","OBJECT_ID":"2020-020X","EPOCH":"2026-02-03T00:57:23.982624","MEAN_MOTION":13.11415071,"ECCENTRICITY":0.00017775,"INCLINATION":87.8823,"RA_OF_ASC_NODE":47.7581,"ARG_OF_PERICENTER":88.3625,"MEAN_ANOMALY":271.7706,"EPHEMERIS_TYPE":0,"CLASSIFICATION_TYPE":"U","NORAD_CAT_ID":45445,"ELEMENT_SET_NO":999,"REV_AT_EPOCH":28507,"BSTAR":0.00074534748,"MEAN_MOTION_DOT":2.77e-6,"MEAN_MOTION_DDOT":0},{"OBJECT_NAME":"ONEWEB-0068","OBJECT_ID":"2020-020Y","EPOCH":"2026-02-03T07:53:29.260032","MEAN_MOTION":13.11416315,"ECCENTRICITY":0.00017351,"INCLINATION":87.8825,"RA_OF_ASC_NODE":47.6902,"ARG_OF_PERICENTER":85.6589,"MEAN_ANOMALY":274.4737,"EPHEMERIS_TYPE":0,"CLASSIFICATION_TYPE":"U","NORAD_CAT_ID":45446,"ELEMENT_SET_NO":999,"REV_AT_EPOCH":28505,"BSTAR":0.0016358512,"MEAN_MOTION_DOT":5.92e-6,"MEAN_MOTION_DDOT":0},{"OBJECT_NAME":"ONEWEB-0046","OBJECT_ID":"2020-020Z","EPOCH":"2026-02-03T07:41:28.843008","MEAN_MOTION":13.11418526,"ECCENTRICITY":0.0001989,"INCLINATION":87.8824,"RA_OF_ASC_NODE":47.6993,"ARG_OF_PERICENTER":86.0659,"MEAN_ANOMALY":274.0697,"EPHEMERIS_TYPE":0,"CLASSIFICATION_TYPE":"U","NORAD_CAT_ID":45447,"ELEMENT_SET_NO":999,"REV_AT_EPOCH":28506,"BSTAR":0.0013402407,"MEAN_MOTION_DOT":4.88e-6,"MEAN_MOTION_DDOT":0},{"OBJECT_NAME":"ONEWEB-0063","OBJECT_ID":"2020-020AA","EPOCH":"2026-02-03T06:33:06.731712","MEAN_MOTION":13.11414347,"ECCENTRICITY":0.00020813,"INCLINATION":87.8821,"RA_OF_ASC_NODE":47.7062,"ARG_OF_PERICENTER":89.2649,"MEAN_ANOMALY":270.8718,"EPHEMERIS_TYPE":0,"CLASSIFICATION_TYPE":"U","NORAD_CAT_ID":45448,"ELEMENT_SET_NO":999,"REV_AT_EPOCH":28514,"BSTAR":-0.00011738874,"MEAN_MOTION_DOT":-2.9e-7,"MEAN_MOTION_DDOT":0},{"OBJECT_NAME":"ONEWEB-0019","OBJECT_ID":"2020-020AB","EPOCH":"2026-02-03T01:59:28.037760","MEAN_MOTION":13.11420006,"ECCENTRICITY":0.00017738,"INCLINATION":87.8809,"RA_OF_ASC_NODE":47.7418,"ARG_OF_PERICENTER":95.5394,"MEAN_ANOMALY":264.5937,"EPHEMERIS_TYPE":0,"CLASSIFICATION_TYPE":"U","NORAD_CAT_ID":45449,"ELEMENT_SET_NO":999,"REV_AT_EPOCH":28496,"BSTAR":0.00049527092,"MEAN_MOTION_DOT":1.88e-6,"MEAN_MOTION_DDOT":0},{"OBJECT_NAME":"ONEWEB-0094","OBJECT_ID":"2020-020AC","EPOCH":"2026-02-03T06:02:11.432544","MEAN_MOTION":13.17648486,"ECCENTRICITY":0.00017078,"INCLINATION":87.9104,"RA_OF_ASC_NODE":32.4468,"ARG_OF_PERICENTER":87.2993,"MEAN_ANOMALY":272.8334,"EPHEMERIS_TYPE":0,"CLASSIFICATION_TYPE":"U","NORAD_CAT_ID":45450,"ELEMENT_SET_NO":999,"REV_AT_EPOCH":28867,"BSTAR":-0.00091752222,"MEAN_MOTION_DOT":-3.43e-6,"MEAN_MOTION_DDOT":0},{"OBJECT_NAME":"ONEWEB-0087","OBJECT_ID":"2020-020AD","EPOCH":"2026-02-03T01:17:56.835456","MEAN_MOTION":13.11415549,"ECCENTRICITY":0.00016343,"INCLINATION":87.8833,"RA_OF_ASC_NODE":47.7136,"ARG_OF_PERICENTER":82.8447,"MEAN_ANOMALY":277.2867,"EPHEMERIS_TYPE":0,"CLASSIFICATION_TYPE":"U","NORAD_CAT_ID":45451,"ELEMENT_SET_NO":999,"REV_AT_EPOCH":28500,"BSTAR":-0.0014385868,"MEAN_MOTION_DOT":-4.97e-6,"MEAN_MOTION_DDOT":0},{"OBJECT_NAME":"ONEWEB-0082","OBJECT_ID":"2020-020AE","EPOCH":"2026-02-03T06:42:51.609600","MEAN_MOTION":13.11414818,"ECCENTRICITY":0.00016659,"INCLINATION":87.8831,"RA_OF_ASC_NODE":47.6936,"ARG_OF_PERICENTER":85.6886,"MEAN_ANOMALY":274.4432,"EPHEMERIS_TYPE":0,"CLASSIFICATION_TYPE":"U","NORAD_CAT_ID":45452,"ELEMENT_SET_NO":999,"REV_AT_EPOCH":28512,"BSTAR":-0.00098229828,"MEAN_MOTION_DOT":-3.35e-6,"MEAN_MOTION_DDOT":0},{"OBJECT_NAME":"ONEWEB-0050","OBJECT_ID":"2020-020AF","EPOCH":"2026-02-03T07:17:27.621888","MEAN_MOTION":14.8986101,"ECCENTRICITY":0.00057957,"INCLINATION":88.9195,"RA_OF_ASC_NODE":251.4651,"ARG_OF_PERICENTER":92.6772,"MEAN_ANOMALY":267.5121,"EPHEMERIS_TYPE":0,"CLASSIFICATION_TYPE":"U","NORAD_CAT_ID":45453,"ELEMENT_SET_NO":999,"REV_AT_EPOCH":32044,"BSTAR":0.00020667403,"MEAN_MOTION_DOT":2.007e-5,"MEAN_MOTION_DDOT":0},{"OBJECT_NAME":"ONEWEB-0034","OBJECT_ID":"2020-020AG","EPOCH":"2026-02-03T01:43:46.540416","MEAN_MOTION":13.11420354,"ECCENTRICITY":0.00018365,"INCLINATION":87.8822,"RA_OF_ASC_NODE":47.7424,"ARG_OF_PERICENTER":90.3616,"MEAN_ANOMALY":269.7722,"EPHEMERIS_TYPE":0,"CLASSIFICATION_TYPE":"U","NORAD_CAT_ID":45454,"ELEMENT_SET_NO":999,"REV_AT_EPOCH":28501,"BSTAR":-0.00074786616,"MEAN_MOTION_DOT":-2.52e-6,"MEAN_MOTION_DDOT":0}]
